FLOCK 4H-33             
1 66736U 25276BY  26154.58570745  .00007062  00000+0  32373-3 0  9994
2 66736  97.4220 228.6849 0002082  26.0226 334.1114 15.20759792 28377
FLOCK 4H-34             
1 66737U 25276BZ  26155.02282861  .00007484  00000+0  34720-3 0  9990
2 66737  97.4236 229.0537 0002496  29.9931 330.1447 15.20326228 27680
FLOCK 4H-35             
1 66738U 25276CA  26155.13379171  .00006031  00000+0  27902-3 0  9995
2 66738  97.4197 229.1149 0001676  26.5854 333.5467 15.20507850 27741
FLOCK 4H-36             
1 66739U 25276CB  26154.63962876  .00006480  00000+0  30167-3 0  9995
2 66739  97.4246 228.6710 0002950  38.4278 321.7166 15.20260220 28375
NUSAT-51 (YVONNE BRILL) 
1 66740U 25276CC  26155.12567700  .00007001  00000+0  32705-3 0  9999
2 66740  97.4209 229.0017 0004222  59.7088 300.4564 15.20105640 28448
BLACK KITE-1            
1 66741U 25276CD  26154.88426921  .00009998  00000+0  46191-3 0  9992
2 66741  97.4243 228.8080 0006440  49.7447 310.4351 15.20366630 25705
MERCURY ONE (M1)        
1 66742U 25276CE  26154.96212390  .00005221  00000+0  24901-3 0  9995
2 66742  97.4194 228.7287 0003069  49.7038 310.4464 15.19509486 28411
NUSAT-47                
1 66743U 25276CF  26155.13167635  .00006878  00000+0  32107-3 0  9993
2 66743  97.4191 228.9540 0003121  70.3636 289.7936 15.20144677 28440
AC1-001                 
1 66744U 25276CG  26155.12327005  .00002804  00000+0  14005-3 0  9994
2 66744  97.4206 228.7007 0004211  64.4684 295.6985 15.18288901 28426
AC1-002                 
1 66745U 25276CH  26154.58575506  .00002586  00000+0  12908-3 0  9992
2 66745  97.4198 228.1750 0003405  61.5727 298.5850 15.18374476 28343
UMBRA-11                
1 66748U 25276CL  26154.88378301  .00027411  00000+0  10614-2 0  9997
2 66748  97.4200 229.6018 0002277  54.4147 305.7303 15.26141684 28465
PIAST-S1                
1 66749U 25276CM  26155.11307415  .00006100  00000+0  28527-3 0  9998
2 66749  97.4191 228.9795 0003048  46.9086 313.2404 15.20125700 28443
TRANSPORTER-15 OBJECT CN
1 66750U 25276CN  26155.12398215  .00004605  00000+0  21855-3 0  9994
2 66750  97.4230 229.0615 0002043  36.4467 323.6907 15.19747655 28443
ICEYE-X58               
1 66751U 25276CP  26155.13403512  .00003663  00000+0  18442-3 0  9994
2 66751  97.4204 228.8367 0004123  43.9654 316.1908 15.17810644 28432
ICEYE-X59               
1 66752U 25276CQ  26152.58335648  .00112525  00000+0  86931-2 0  9990
2 66752  97.4267 224.5478 0001484  93.8061  64.3210 15.00966635  5832
ICEYE-X60               
1 66753U 25276CR  26154.74800762  .00010900  00000+0  66454-3 0  9998
2 66753  97.4188 227.8201 0004540  74.3996 285.7735 15.10514866 28339
ICEYE-X61               
1 66754U 25276CS  26155.11176648  .00003905  00000+0  19354-3 0  9994
2 66754  97.4202 228.8481 0004079  48.3087 311.8495 15.18325793 28439
ICEYE-X62               
1 66755U 25276CT  26155.07501547  .00003125  00000+0  19625-3 0  9995
2 66755  97.4202 227.6945 0003640  68.5143 291.6474 15.09973533 28356
MAUVE                   
1 66756U 25276CU  26155.09624270  .00008414  00000+0  38829-3 0  9990
2 66756  97.4204 229.0366 0002143  48.3519 311.7899 15.20471351 28441
PIAST-S2                
1 66757U 25276CV  26154.16500115  .00006772  00000+0  31435-3 0  9990
2 66757  97.4216 228.1655 0002078  48.6936 311.4478 15.20346513 28305
PIAST-M                 
1 66758U 25276CW  26155.10046019  .00006233  00000+0  29144-3 0  9990
2 66758  97.4186 228.9813 0001931  59.6720 300.4706 15.20128185 28446
TRANSPORTER-15 OBJECT CX
1 66759U 25276CX  26155.11865573  .00006580  00000+0  30166-3 0  9997
2 66759  97.4167 229.0724 0001678  45.2223 314.9148 15.20784529 28457
TRANSPORTER-15 OBJECT CY
1 66760U 25276CY  26154.43235212  .00005589  00000+0  26157-3 0  9997
2 66760  97.4189 228.3553 0001392  74.3161 285.8228 15.20141523 28346
TRANSPORTER-15 OBJECT CZ
1 66761U 25276CZ  26155.09309035  .00010655  00000+0  46831-3 0  9997
2 66761  97.4181 229.2972 0000921  69.6168 290.5167 15.22081170 28466
HYDROGNSS-1             
1 66762U 25276DA  26154.43052835  .00003549  00000+0  21362-3 0  9994
2 66762  97.4199 227.3321 0012565  97.5568 262.7090 15.11385403 28273
HYDROGNSS-2             
1 66763U 25276DB  26155.12715281  .00003440  00000+0  20627-3 0  9996
2 66763  97.4201 227.9394 0012971  48.5510 311.6832 15.11543900 28375
NAHLA                   
1 66764U 25276DC  26155.13385888  .00003269  00000+0  16024-3 0  9999
2 66764  97.4198 228.8184 0003631  45.5250 314.6280 15.18824188 28433
TRANSPORTER-15 OBJECT DD
1 66765U 25276DD  26155.12774135  .00015968  00000+0  67342-3 0  9994
2 66765  97.4215 229.6143 0001180 100.0008 260.1362 15.23388754 28484
T.MICROSAT-1            
1 66766U 25276DE  26155.11368160  .00006239  00000+0  28716-3 0  9994
2 66766  97.4160 229.0472 0001365 119.3712 240.7660 15.20668276 28452
ACCENTURE-1             
1 66767U 25276DF  26155.09790002  .00004713  00000+0  22276-3 0  9996
2 66767  97.4162 228.9265 0001306 112.7840 247.3533 15.19876350 28440
