OBJECT_NAME,OBJECT_ID,EPOCH,MEAN_MOTION,ECCENTRICITY,INCLINATION,RA_OF_ASC_NODE,ARG_OF_PERICENTER,MEAN_ANOMALY,EPHEMERIS_TYPE,CLASSIFICATION_TYPE,NORAD_CAT_ID,ELEMENT_SET_NO,REV_AT_EPOCH,BSTAR,MEAN_MOTION_DOT,MEAN_MOTION_DDOT
FLOCK 4H-33,2025-276BY,2026-06-03T14:03:25.123680,15.20759792,.0002082,97.4220,228.6849,26.0226,334.1114,0,U,66736,999,2837,.32373E-3,.7062E-4,0
FLOCK 4H-34,2025-276BZ,2026-06-04T00:32:52.391904,15.20326228,.00024963,97.4236,229.0537,29.9931,330.1447,0,U,66737,999,2768,.34720402E-3,.7484E-4,0
FLOCK 4H-35,2025-276CA,2026-06-04T03:12:39.603744,15.20507850,.00016765,97.4197,229.1149,26.5854,333.5467,0,U,66738,999,2774,.27901721E-3,.6031E-4,0
FLOCK 4H-36,2025-276CB,2026-06-03T15:21:03.924864,15.20260220,.000295,97.4246,228.6710,38.4278,321.7166,0,U,66739,999,2837,.30167E-3,.648E-4,0
NUSAT-51 (YVONNE BRILL),2025-276CC,2026-06-04T03:00:58.492800,15.20105640,.00042225,97.4209,229.0017,59.7088,300.4564,0,U,66740,999,2844,.3270524E-3,.7001E-4,0
BLACK KITE-1,2025-276CD,2026-06-03T21:13:20.859744,15.20366630,.000644,97.4243,228.8080,49.7447,310.4351,0,U,66741,999,2570,.46191E-3,.9998E-4,0
MERCURY ONE (M1),2025-276CE,2026-06-03T23:05:27.504960,15.19509486,.00030692,97.4194,228.7287,49.7038,310.4464,0,U,66742,999,2841,.24901241E-3,.5221E-4,0
NUSAT-47,2025-276CF,2026-06-04T03:09:36.836640,15.20144677,.00031218,97.4191,228.9540,70.3636,289.7936,0,U,66743,999,2844,.32106693E-3,.6878E-4,0
AC1-001,2025-276CG,2026-06-04T02:57:30.532320,15.18288901,.00042111,97.4206,228.7007,64.4684,295.6985,0,U,66744,999,2842,.14005044E-3,.2804E-4,0
AC1-002,2025-276CH,2026-06-03T14:03:29.237184,15.18374476,.0003405,97.4198,228.1750,61.5727,298.5850,0,U,66745,999,2834,.12908E-3,.2586E-4,0
UMBRA-11,2025-276CL,2026-06-03T21:12:38.852064,15.26141684,.0002277,97.4200,229.6018,54.4147,305.7303,0,U,66748,999,2846,.10614E-2,.27411E-3,0
PIAST-S1,2025-276CM,2026-06-04T02:42:49.606560,15.20125700,.00030483,97.4191,228.9795,46.9086,313.2404,0,U,66749,999,2844,.28526785E-3,.61E-4,0
TRANSPORTER-15 OBJECT CN,2025-276CN,2026-06-04T02:58:32.057760,15.19747655,.0002043,97.4230,229.0615,36.4467,323.6907,0,U,66750,999,2844,.2185462E-3,.4605E-4,0
ICEYE-X58,2025-276CP,2026-06-04T03:13:00.634368,15.17810644,.00041237,97.4204,228.8367,43.9654,316.1908,0,U,66751,999,2843,.18442434E-3,.3663E-4,0
ICEYE-X59,2025-276CQ,2026-06-01T14:00:01.999872,15.00966635,.0001484,97.4267,224.5478,93.8061,64.3210,0,U,66752,999,583,.86931329E-2,.112525E-2,0
ICEYE-X60,2025-276CR,2026-06-03T17:57:07.858368,15.10514866,.00045404,97.4188,227.8201,74.3996,285.7735,0,U,66753,999,2833,.66453796E-3,.109E-3,0
ICEYE-X61,2025-276CS,2026-06-04T02:40:56.623872,15.18325793,.0004079,97.4202,228.8481,48.3087,311.8495,0,U,66754,999,2843,.19353994E-3,.3905E-4,0
ICEYE-X62,2025-276CT,2026-06-04T01:48:01.336608,15.09973533,.00036409,97.4202,227.6945,68.5143,291.6474,0,U,66755,999,2835,.19625034E-3,.3125E-4,0
MAUVE,2025-276CU,2026-06-04T02:18:35.369280,15.20471351,.0002143,97.4204,229.0366,48.3519,311.7899,0,U,66756,999,2844,.38828966E-3,.8414E-4,0
PIAST-S2,2025-276CV,2026-06-03T03:57:36.099360,15.20346513,.00020785,97.4216,228.1655,48.6936,311.4478,0,U,66757,999,2830,.314354E-3,.6772E-4,0
PIAST-M,2025-276CW,2026-06-04T02:24:39.760416,15.20128185,.00019314,97.4186,228.9813,59.6720,300.4706,0,U,66758,999,2844,.29143694E-3,.6233E-4,0
TRANSPORTER-15 OBJECT CX,2025-276CX,2026-06-04T02:50:51.855072,15.20784529,.00016784,97.4167,229.0724,45.2223,314.9148,0,U,66759,999,2845,.30166033E-3,.658E-4,0
TRANSPORTER-15 OBJECT CY,2025-276CY,2026-06-03T10:22:35.223168,15.20141523,.0001392,97.4189,228.3553,74.3161,285.8228,0,U,66760,999,2834,.26156693E-3,.5589E-4,0
TRANSPORTER-15 OBJECT CZ,2025-276CZ,2026-06-04T02:14:03.006240,15.22081170,.00009218,97.4181,229.2972,69.6168,290.5167,0,U,66761,999,2846,.46830661E-3,.10655E-3,0
HYDROGNSS-1,2025-276DA,2026-06-03T10:19:57.649440,15.11385403,.00125658,97.4199,227.3321,97.5568,262.7090,0,U,66762,999,2827,.21362219E-3,.3549E-4,0
HYDROGNSS-2,2025-276DB,2026-06-04T03:03:06.002784,15.11543900,.00129718,97.4201,227.9394,48.5510,311.6832,0,U,66763,999,2837,.20627366E-3,.344E-4,0
NAHLA,2025-276DC,2026-06-04T03:12:45.407232,15.18824188,.00036315,97.4198,228.8184,45.5250,314.6280,0,U,66764,999,2843,.1602439E-3,.3269E-4,0
TRANSPORTER-15 OBJECT DD,2025-276DD,2026-06-04T03:03:56.852640,15.23388754,.00011809,97.4215,229.6143,100.0008,260.1362,0,U,66765,999,2848,.67341913E-3,.15968E-3,0
T.MICROSAT-1,2025-276DE,2026-06-04T02:43:42.090240,15.20668276,.00013651,97.4160,229.0472,119.3712,240.7660,0,U,66766,999,2845,.2871566E-3,.6239E-4,0
ACCENTURE-1,2025-276DF,2026-06-04T02:20:58.561728,15.19876350,.00013062,97.4162,228.9265,112.7840,247.3533,0,U,66767,999,2844,.22275803E-3,.4713E-4,0
